KUIPER-00533            
1 69605U 26140P   26187.68526223  .00029531  00000+0  78126-3 0  9993
2 69605  51.8778 304.3975 0007829 295.0091  65.0083 15.38123117  4230
KUIPER-00534            
1 69606U 26140Q   26187.60327589  .00027814  00000+0  72305-3 0  9995
2 69606  51.8820 304.6070 0013834 234.3584 125.6115 15.38631911  4228
KUIPER-00537            
1 69607U 26140R   26187.84495885 -.00063651  00000+0 -18839-2 0  9999
2 69607  51.8822 303.9668 0010221  28.4789 331.6753 15.34387039  4257
KUIPER-00538            
1 69608U 26140S   26187.75793163  .00018185  00000+0  49449-3 0  9992
2 69608  51.8807 304.1380 0006306 311.0513  48.9928 15.37585029  4243
KUIPER-00540            
1 69609U 26140T   26187.75003471  .00056941  00000+0  15571-2 0  9999
2 69609  51.8818 304.2672 0006378 356.6657 276.9335 15.36800257  3644
KUIPER-00541            
1 69610U 26140U   26187.68569421  .00014372  00000+0  38467-3 0  9997
2 69610  51.8820 304.4083 0007343 290.3560  69.6638 15.38259623  4233
KUIPER-00542            
1 69611U 26140V   26187.68399666  .00020584  00000+0  54624-3 0  9995
2 69611  51.8790 304.3901 0007852 270.7968  89.2119 15.38241921  4231
KUIPER-00543            
1 69612U 26140W   26187.57441795  .00015069  00000+0  42357-3 0  9997
2 69612  51.8795 305.1467 0007643   6.0543 354.0535 15.36692712  4219
KUIPER-00544            
1 69613U 26140X   26187.68764656  .00029367  00000+0  77983-3 0  9993
2 69613  51.8775 304.4125 0006633 287.4279  72.5982 15.38018871  4230
KUIPER-00546            
1 69614U 26140Y   26187.53954882  .00023965  00000+0  62162-3 0  9991
2 69614  51.8789 304.9265 0014919 233.7941 126.1668 15.38770315  4215
KUIPER-00547            
1 69615U 26140Z   26187.68033175  .00021867  00000+0  58862-3 0  9992
2 69615  51.8823 304.3720 0011030 255.9184 104.0577 15.37733363  4238
KUIPER-00549            
1 69616U 26140AA  26187.63276481  .00018423  00000+0  50599-3 0  9990
2 69616  51.8799 304.7931 0007203 346.1785  13.9004 15.37258523  4228
KUIPER-00550            
1 69617U 26140AB  26187.75003471 -.00046963  00000+0 -14301-2 0  9993
2 69617  51.8806 304.4937 0007424  21.6683 136.8199 15.33383484  3486
KUIPER-00551            
1 69618U 26140AC  26187.67458499  .00021784  00000+0  57942-3 0  9990
2 69618  51.8790 304.3306 0012539 247.9373 112.0283 15.38087756  4232
KUIPER-00554            
1 69619U 26140AD  26187.80881720  .00020306  00000+0  54519-3 0  9999
2 69619  51.8784 303.7282 0011363 257.6853 102.2862 15.37858683  4257
KUIPER-00555            
1 69620U 26140AE  26187.80629929  .00021263  00000+0  56802-3 0  9992
2 69620  51.8815 303.7183 0011558 249.5817 110.3929 15.37981513  4253
KUIPER-00556            
1 69621U 26140AF  26187.67696848  .00021048  00000+0  55872-3 0  9999
2 69621  51.8808 304.3479 0012252 235.8141 124.1685 15.38175703  4238
KUIPER-00557            
1 69622U 26140AG  26187.68243626  .00019827  00000+0  54081-3 0  9996
2 69622  51.8810 304.3847 0009810 264.3826  95.6042 15.37400724  4236
KUIPER-00560            
1 69623U 26140AH  26187.67930737  .00022242  00000+0  57941-3 0  9995
2 69623  51.8789 304.3582 0008831 270.2940  89.7036 15.38755142  4238
KUIPER-00561            
1 69624U 26140AJ  26187.68140149  .00020238  00000+0  53174-3 0  9994
2 69624  51.8820 304.3810 0008039 273.5809  86.4259 15.38558687  4235
KUIPER-00564            
1 69625U 26140AK  26187.80796683 -.00370950  00000+0 -10414-1 0  9998
2 69625  51.8804 303.7270 0009463 263.9488  96.0421 15.37424079  4255
KUIPER-00567            
1 69626U 26140AL  26187.67480082  .00021436  00000+0  56576-3 0  9998
2 69626  51.8776 304.3294 0012953 236.2840 123.6913 15.38333443  4236
KUIPER-00573            
1 69627U 26140AM  26187.68570902  .00015551  00000+0  42838-3 0  9998
2 69627  51.8786 304.4008 0009379 251.6841 108.3126 15.37282699  4233
CENTISPACE-1 GROUP 05 O*
1 69636U 26138J   26187.55642118 -.00000427  00000+0 -13832-3 0  9990
2 69636  55.1387 209.6022 0008945 325.0239  35.0147 14.15845194  2736
VICTUS HAZE PUMA        
1 69646U 26142A   26187.82342014  .00000335  00000+0  18306-4 0  9996
2 69646  97.4477  85.2238 0025296 296.9909  62.8744 15.20804641  2652
